{
  "metadata": {
    "responseInfo": {
      "status": 200,
      "developerMessage": "OK",
      "userMessage": "",
      "errorCode": "",
      "moreInfo": ""
    },
    "resultset": {
      "count": 197073,
      "limit": 16,
      "offset": 0
    }
  },
  "results": [
    {
      "id": "50cb6d2ba9a0b1c52e000017",
      "type": "signature",
      "name": "D. S.",
      "city": "Bethel",
      "state": "VT",
      "zip": "05032",
      "created": 1356086945
    },
    {
      "id": "50cb6d2ba9a0b1c52e000017",
      "type": "signature",
      "name": "K. J.",
      "city": "Seattle",
      "state": "WA",
      "zip": "98105",
      "created": 1356086913
    },
    {
      "id": "50cb6d2ba9a0b1c52e000017",
      "type": "signature",
      "name": "R. F.",
      "city": "Tolland",
      "state": "CT",
      "zip": "06084",
      "created": 1356086855
    },
    {
      "id": "50cb6d2ba9a0b1c52e000017",
      "type": "signature",
      "name": "A. M.",
      "city": "",
      "state": "",
      "zip": "28117",
      "created": 1356086835
    },
    {
      "id": "50cb6d2ba9a0b1c52e000017",
      "type": "signature",
      "name": "S. J.",
      "city": "Danbury",
      "state": "CT",
      "zip": "06810",
      "created": 1356086774
    },
    {
      "id": "50cb6d2ba9a0b1c52e000017",
      "type": "signature",
      "name": "P. M.",
      "city": "West Warwick",
      "state": "RI",
      "zip": "02893",
      "created": 1356086662
    },
    {
      "id": "50cb6d2ba9a0b1c52e000017",
      "type": "signature",
      "name": "G. S.",
      "city": "Woodside",
      "state": "NY",
      "zip": "11377",
      "created": 1356086587
    },
    {
      "id": "50cb6d2ba9a0b1c52e000017",
      "type": "signature",
      "name": "E. S.",
      "city": "Carrboro",
      "state": "NC",
      "zip": "27510",
      "created": 1356086581
    },
    {
      "id": "50cb6d2ba9a0b1c52e000017",
      "type": "signature",
      "name": "R. W.",
      "city": "West Berlin",
      "state": "NJ",
      "zip": "08091",
      "created": 1356086548
    },
    {
      "id": "50cb6d2ba9a0b1c52e000017",
      "type": "signature",
      "name": "D. H.",
      "city": "San Diego",
      "state": "CA",
      "zip": "92106",
      "created": 1356086511
    },
    {
      "id": "50cb6d2ba9a0b1c52e000017",
      "type": "signature",
      "name": "C. G.",
      "city": "Webster",
      "state": "NY",
      "zip": "14580",
      "created": 1356086483
    },
    {
      "id": "50cb6d2ba9a0b1c52e000017",
      "type": "signature",
      "name": "P. C.",
      "city": "Petaluma",
      "state": "CA",
      "zip": "94954",
      "created": 1356086465
    },
    {
      "id": "50cb6d2ba9a0b1c52e000017",
      "type": "signature",
      "name": "J. S.",
      "city": "Ocean View",
      "state": "DE",
      "zip": "19970",
      "created": 1356086451
    },
    {
      "id": "50cb6d2ba9a0b1c52e000017",
      "type": "signature",
      "name": "J. G.",
      "city": "",
      "state": "",
      "zip": "13031",
      "created": 1356086451
    },
    {
      "id": "50cb6d2ba9a0b1c52e000017",
      "type": "signature",
      "name": "R. M.",
      "city": "Dearborn",
      "state": "MI",
      "zip": "48124",
      "created": 1356086420
    },
    {
      "id": "50cb6d2ba9a0b1c52e000017",
      "type": "signature",
      "name": "D. C.",
      "city": "Cornelia",
      "state": "GA",
      "zip": "30531",
      "created": 1356086402
    }
  ]
}
